STARLINK-3861           
1 52503U 22049BE  26068.30987268 -.00000741  00000+0 -28500-4 0  9999
2 52503  53.2187  40.7110 0001384  89.9727 270.1424 15.08837336212474
DISKSAT B               
1 67220U 25305B   26068.81497770  .00012481  00000+0  82401-3 0  9990
2 67220  45.0018 250.2098 0003783 311.4052  48.6498 15.07484556 12311
